SAR-LUPE 2              
1 31797U 07030A   26156.13869998  .00001139  00000+0  23616-4 0  9995
2 31797  98.1029 259.0981 0008691 158.0800 202.0821 15.48340724 55078
SAPPHIRE                
1 39088U 13009C   26156.24059658  .00000105  00000+0  51789-4 0  9999
2 39088  98.4258 335.9804 0010013 286.3361  73.6723 14.35237136694868
PRAETORIAN SDA_602      
1 65565U 25203A   26156.02623343  .00000063  00000+0  46033-4 0  9990
2 65565  81.3040  22.0348 0005193 219.9628 140.1147 13.84341910 37012
PRAETORIAN SDA_603      
1 65566U 25203B   26155.68758287  .00000214  00000+0  18211-3 0  9992
2 65566  81.3042  22.2566 0008748 223.7267 136.3198 13.83904801 36970
PRAETORIAN SDA_604      
1 65567U 25203C   26156.06127334  .00000124  00000+0  10256-3 0  9990
2 65567  81.3062  22.3039 0004727 228.0714 132.0040 13.83046294 37004
PRAETORIAN SDA_605      
1 65568U 25203D   26156.02999135  .00000090  00000+0  71122-4 0  9995
2 65568  81.3026  22.0076 0007486 218.1203 141.9424 13.83433404 37010
PRAETORIAN SDA_606      
1 65569U 25203E   26156.08462793  .00000094  00000+0  74474-4 0  9994
2 65569  81.3062  22.1736 0005137 216.2026 143.8784 13.83406387 37018
PRAETORIAN SDA_607      
1 65570U 25203F   26156.02804421  .00000213  00000+0  17981-3 0  9990
2 65570  81.3050  21.9078 0008037 223.2323 136.8203 13.84283515 37029
PRAETORIAN SDA_608      
1 65571U 25203G   26156.07364328  .00000094  00000+0  74379-4 0  9995
2 65571  81.3015  22.0227 0005230 226.9462 133.1257 13.83815828 37010
PRAETORIAN SDA_609      
1 65572U 25203H   26156.08235484  .00000206  00000+0  17413-3 0  9997
2 65572  81.3060  22.0003 0006283 218.2973 141.7738 13.84284095 37020
PRAETORIAN SDA_610      
1 65573U 25203J   26155.98140346  .00000063  00000+0  46428-4 0  9998
2 65573  81.3016  22.0666 0005896 224.3360 135.7325 13.83851059 37006
PRAETORIAN SDA_611      
1 65574U 25203K   26155.97739903  .00000142  00000+0  11883-3 0  9995
2 65574  81.3014  22.2262 0004820 232.7002 127.3715 13.83308254 36992
PRAETORIAN SDA_612      
1 65575U 25203L   26155.98224709  .00000193  00000+0  16032-3 0  9997
2 65575  81.3036  21.8378 0008580 221.8746 138.1756 13.85037462 37023
PRAETORIAN SDA_613      
1 65576U 25203M   26155.97934490  .00000065  00000+0  48902-4 0  9992
2 65576  81.3009  22.2116 0004988 219.4797 140.5996 13.82764209 36997
PRAETORIAN SDA_614      
1 65577U 25203N   26156.04138198  .00000099  00000+0  77301-4 0  9995
2 65577  81.3023  21.8579 0006436 218.9725 141.0969 13.84777672 37039
PRAETORIAN SDA_615      
1 65578U 25203P   26156.08754016  .00000220  00000+0  18611-3 0  9997
2 65578  81.3034  21.7713 0008312 220.5394 139.5145 13.84435426 37033
PRAETORIAN SDA_616      
1 65579U 25203Q   26155.97624724  .00000228  00000+0  19687-3 0  9999
2 65579  81.3071  22.3637 0004813 229.0791 130.9949 13.83266678 36995
PRAETORIAN SDA_617      
1 65580U 25203R   26156.06915128  .00000101  00000+0  81905-4 0  9996
2 65580  81.3045  22.1105 0006685 219.2760 140.7911 13.83149903 37015
PRAETORIAN SDA_618      
1 65581U 25203S   26155.98336775  .00000180  00000+0  14923-3 0  9994
2 65581  81.3028  21.8024 0009015 223.4858 136.5589 13.84668456 37023
PRAETORIAN SDA_619      
1 65582U 25203T   26156.08397501 -.00013833  00000+0 -12514-1 0  9994
2 65582  81.3048  21.9863 0007695 220.9226 139.1353 13.83868773 37651
PRAETORIAN SDA_620      
1 65583U 25203U   26156.03804416  .00000191  00000+0  16278-3 0  9992
2 65583  81.3044  22.0493 0007227 213.6855 146.3843 13.83617346 37019
PRAETORIAN SDA_621      
1 65584U 25203V   26156.08574324  .00000099  00000+0  78773-4 0  9996
2 65584  81.3029  21.9266 0006757 213.0874 146.9860 13.83800262 37028
PRAETORIAN SDA_601      
1 65585U 25203W   26155.97849916 -.00000013  00000+0 -22350-4 0  9994
2 65585  81.3043  22.3090 0004741 233.2105 126.8617 13.83166476 36991
